     2.100          NAVIGATION                              RINEX VERSION / TYPE
fic2rin                                 03/08/2016 00:04:43 PGM / RUN BY / DATE
                                                            END OF HEADER
13 16  3  7 22  0  0.0 -.180024653673D-05 -.284217094304D-11  .000000000000D+00
     .670000000000D+02  .950000000000D+01  .493591988659D-08 -.167687333888D+01
     .597909092903D-06  .464428018313D-02  .386126339436D-05  .515367111397D+04
     .165600000000D+06 -.838190317154D-07  .142071223876D+01  .763684511185D-07
     .971571758732D+00  .312812500000D+03  .198308987954D+01 -.839356391134D-08
     .134291308058D-09  .100000000000D+01  .188700000000D+04  .000000000000D+00
     .240000000000D+01  .000000000000D+00 -.111758708954D-07  .670000000000D+02
     .158406000000D+06  .400000000000D+01
14 16  3  7 22  0  0.0 -.118650496006D-05 -.216004991671D-11  .000000000000D+00
     .740000000000D+02  .139062500000D+02  .513092800946D-08  .144342588082D+00
     .584870576859D-06  .836035504472D-02  .374577939510D-05  .515372588348D+04
     .165600000000D+06 -.484287738800D-07  .138416435388D+01  .298023223877D-07
     .964077422517D+00  .310562500000D+03 -.195299938674D+01 -.868250451831D-08
     .121433629627D-09  .100000000000D+01  .188700000000D+04  .000000000000D+00
     .240000000000D+01  .000000000000D+00 -.931322574615D-08  .740000000000D+02
     .158406000000D+06  .400000000000D+01
15 16  3  7 22  0  0.0 -.300644431263D-03 -.181898940355D-11  .000000000000D+00
     .500000000000D+01  .369375000000D+02  .581274212404D-08 -.673595668843D+00
     .209175050259D-05  .808219145983D-02  .344589352608D-05  .515354355049D+04
     .165600000000D+06  .117346644402D-06  .125053019740D+01  .651925802231D-07
     .930962292465D+00  .293406250000D+03  .477234851821D+00 -.893680082505D-08
     .362157942475D-09  .100000000000D+01  .188700000000D+04  .000000000000D+00
     .240000000000D+01  .000000000000D+00 -.107102096081D-07  .500000000000D+01
     .158406000000D+06  .400000000000D+01
16 16  3  7 22  0  0.0 -.339932739735D-04  .295585778076D-11  .000000000000D+00
     .950000000000D+02  .109812500000D+03  .378015745873D-08  .116086170020D+01
     .606663525105D-05  .865286507178D-02  .108331441879D-04  .515372299576D+04
     .165600000000D+06 -.204890966415D-07 -.281120590331D+01  .135973095894D-06
     .991129141878D+00  .185562500000D+03  .336323302564D+00 -.775675167127D-08
     .148934775160D-09  .100000000000D+01  .188700000000D+04  .000000000000D+00
     .340000000000D+01  .000000000000D+00 -.102445483208D-07  .950000000000D+02
     .158406000000D+06  .400000000000D+01
17 16  3  7 22  0  0.0 -.201702583581D-03 -.568434188608D-12  .000000000000D+00
     .380000000000D+02  .227812500000D+02  .477448459073D-08  .208594190042D+00
     .124797224998D-05  .109970697667D-01  .183098018169D-05  .515364386749D+04
     .165600000000D+06 -.199303030968D-06 -.178866385214D+01  .111758708954D-06
     .975157850782D+00  .354031250000D+03 -.194010750456D+01 -.871322008345D-08
    -.892894335490D-11  .100000000000D+01  .188700000000D+04  .000000000000D+00
     .240000000000D+01  .000000000000D+00 -.107102096081D-07  .380000000000D+02
     .158406000000D+06  .400000000000D+01
18 16  3  7 22  0  0.0  .491182785481D-03  .409272615798D-11  .000000000000D+00
     .440000000000D+02  .185000000000D+02  .496020661252D-08  .176972872266D+01
     .927597284317D-06  .167782952776D-01  .124406069517D-04  .515367669678D+04
     .165600000000D+06 -.191852450371D-06  .230748990090D+00 -.478699803352D-06
     .925502651472D+00  .120875000000D+03 -.190768383590D+01 -.824070040111D-08
     .555023118941D-09  .100000000000D+01  .188700000000D+04  .000000000000D+00
     .240000000000D+01  .000000000000D+00 -.111758708954D-07  .440000000000D+02
     .158406000000D+06  .400000000000D+01
19 16  3  7 22  0  0.0 -.525176525116D-03 -.227373675443D-12  .000000000000D+00
     .650000000000D+02  .123750000000D+02  .479877131666D-08 -.294366774600D+01
     .575557351112D-06  .107317451620D-01  .110641121864D-05  .515360075188D+04
     .165600000000D+06 -.242143869400D-07 -.173964684791D+01 -.178813934326D-06
     .972227956488D+00  .362625000000D+03  .721417433886D+00 -.846499545818D-08
    -.117862052285D-10  .100000000000D+01  .188700000000D+04  .000000000000D+00
     .340000000000D+01  .000000000000D+00 -.153668224812D-07  .650000000000D+02
     .158406000000D+06  .400000000000D+01
20 16  3  7 22  0  0.0  .397770665586D-03  .261479726760D-11  .000000000000D+00
     .290000000000D+02  .896875000000D+01  .493484841339D-08 -.552648967842D+00
     .616535544395D-06  .479387678206D-02  .130627304316D-04  .515370894241D+04
     .165600000000D+06 -.186264514923D-07  .178846141500D+00  .614672899246D-07
     .926771939177D+00  .112156250000D+03  .134422044804D+01 -.825212944860D-08
     .511449875369D-09  .100000000000D+01  .188700000000D+04  .000000000000D+00
     .240000000000D+01  .000000000000D+00 -.838190317154D-08  .290000000000D+02
     .158406000000D+06  .400000000000D+01
21 16  3  7 22  0  0.0 -.513833016157D-03 -.170530256582D-11  .000000000000D+00
     .520000000000D+02 -.137468750000D+03  .482162941165D-08  .263796133512D+01
    -.715255737305D-05  .232578299474D-01  .765919685364D-05  .515366476440D+04
     .165600000000D+06  .191852450371D-06 -.811099537689D+00 -.193715095520D-06
     .935865723227D+00  .215000000000D+03 -.182036534104D+01 -.799533303771D-08
    -.487877464912D-09  .100000000000D+01  .188700000000D+04  .000000000000D+00
     .240000000000D+01  .000000000000D+00 -.116415321827D-07  .520000000000D+02
     .158406000000D+06  .400000000000D+01
22 16  3  7 22  0  0.0  .385312363505D-03 -.648014975013D-11  .000000000000D+00
     .290000000000D+02  .387187500000D+02  .512628495892D-08  .338177706299D+00
     .208057463169D-05  .774160237052D-02  .124201178551D-04  .515508001137D+04
     .165600000000D+06 -.238418579102D-06  .231507694516D+00  .115483999252D-06
     .923362514966D+00  .122500000000D+03 -.201490970096D+01 -.836320550394D-08
     .482520098899D-09  .100000000000D+01  .188700000000D+04  .000000000000D+00
     .240000000000D+01  .000000000000D+00 -.176951289177D-07  .290000000000D+02
     .158406000000D+06  .400000000000D+01
23 16  3  7 22  0  0.0 -.163570977747D-03 -.181898940355D-11  .000000000000D+00
     .800000000000D+01  .195312500000D+02  .548165690444D-08 -.107118394711D+01
     .110454857349D-05  .105534536997D-01  .327266752720D-05  .515370384216D+04
     .165600000000D+06  .238418579102D-06  .130713465257D+01 -.931322574615D-08
     .946123043560D+00  .303000000000D+03 -.260774387274D+01 -.869500503900D-08
     .282868925483D-09  .100000000000D+01  .188700000000D+04  .000000000000D+00
     .240000000000D+01  .000000000000D+00 -.200234353542D-07  .800000000000D+01
     .158406000000D+06  .400000000000D+01
24 16  3  7 22  0  0.0 -.135703012347D-04 -.568434188608D-12  .000000000000D+00
     .100000000000D+02 -.735937500000D+02  .495234914236D-08 -.169001344901D+01
    -.389665365219D-05  .434211501852D-02  .944733619690D-05  .515362870026D+04
     .165600000000D+06  .745058059692D-08  .233368432833D+01 -.106170773506D-06
     .950249492197D+00  .191812500000D+03  .383431466408D+00 -.824141471657D-08
    -.551094383865D-09  .100000000000D+01  .188700000000D+04  .000000000000D+00
     .240000000000D+01  .000000000000D+00  .232830643654D-08  .100000000000D+02
     .158406000000D+06  .400000000000D+01
25 16  3  7 22  0  0.0 -.130031257868D-03 -.693489710102D-11  .000000000000D+00
     .250000000000D+02  .935625000000D+02  .388444751712D-08  .268899859556D+01
     .479631125927D-05  .527420360595D-02  .122804194689D-04  .515355143738D+04
     .165600000000D+06 -.372529029846D-07 -.287988294657D+01 -.819563865662D-07
     .978923551135D+00  .150312500000D+03  .706562371227D+00 -.763174646430D-08
     .222866426138D-09  .100000000000D+01  .188700000000D+04  .000000000000D+00
     .240000000000D+01  .000000000000D+00  .558793544769D-08  .250000000000D+02
     .158406000000D+06  .400000000000D+01
26 16  3  7 22  0  0.0 -.283673405647D-03 -.148929757415D-10  .000000000000D+00
     .770000000000D+02  .102687500000D+03  .441554106787D-08  .200553967555D+01
     .553205609322D-05  .927560380660D-03  .115875154734D-04  .515372632027D+04
     .165600000000D+06 -.372529029846D-08 -.288743229143D+01  .633299350739D-07
     .960924172817D+00  .157968750000D+03 -.220706895728D-01 -.799783314185D-08
     .196079596074D-09  .100000000000D+01  .188700000000D+04  .000000000000D+00
     .240000000000D+01  .000000000000D+00  .698491930962D-08  .770000000000D+02
     .158406000000D+06  .400000000000D+01
27 16  3  7 22  0  0.0  .697886571288D-04  .375166564481D-11  .000000000000D+00
     .550000000000D+02  .213750000000D+02  .483198698594D-08  .256414651625D+00
     .106729567051D-05  .332135090139D-02  .128522515297D-05  .515362888908D+04
     .165600000000D+06  .558793544769D-07 -.183812217193D+01 -.745058059692D-08
     .970116700912D+00  .354750000000D+03  .208623679545D+00 -.860607276319D-08
    -.500020827875D-11  .100000000000D+01  .188700000000D+04  .000000000000D+00
     .240000000000D+01  .000000000000D+00  .139698386192D-08  .550000000000D+02
     .158406000000D+06  .400000000000D+01
28 16  3  7 22  0  0.0  .507510732859D-03  .272848410532D-11  .000000000000D+00
     .360000000000D+02  .102156250000D+03  .385266047877D-08  .966739602802D+00
     .524334609509D-05  .198449214222D-01  .120028853416D-04  .515363068008D+04
     .165600000000D+06 -.298023223877D-06 -.280616963081D+01 -.145286321640D-06
     .989810075460D+00  .170062500000D+03 -.161925526434D+01 -.805104964425D-08
     .280011663610D-09  .100000000000D+01  .188700000000D+04  .000000000000D+00
     .240000000000D+01  .000000000000D+00 -.107102096081D-07  .360000000000D+02
     .158406000000D+06  .400000000000D+01
